JINJUSAT-1B             
1 63210U 25052A   26068.66363707  .00019955  00000+0  68430-3 0  9998
2 63210  97.4113 325.4613 0005550  82.1930 277.9941 15.30194857 54866
STARLINK-36443          
1 67431U 26005AD  26068.52545754  .00029859  00000+0  10627-2 0  9993
2 67431  42.9998 238.7026 0002291 266.7980  93.2610 15.28415724  8675
